[{"title":"東森得易購股份有限公司","category":"量販電商","website":"https://www.etmall.com.tw/","phone":"02-24937888","city":"新北市","region":"中和區","postal_code":235,"address":"景平路258號","full_address":"235,新北市中和區景平路258號","plan":"1.東森購物平台建立共善專區。2.銷售金額捐1%支持台灣慈善。3.公益廣告聯名呈現。"},{"title":"茂迪股份有限公司","category":"光電綠能","website":"https://www.motech.com.tw/","phone":"06-5050789","city":"新北市","region":"深坑區","postal_code":222,"address":"北深路3段248號6樓","full_address":"222,新北市深坑區北深路3段248號6樓","plan":"茂迪向本會承租11處社區道場建物建置太陽能發電系統，並依各系統發電轉供綠電予本會，作為實現淨零碳排永續發展（SDGs）目標。"},{"title":"中美兄弟製藥股份有限公司","category":"醫藥生物","website":"https://www.xn--9iqz4ci2wql2c.tw/about-chungmei","phone":"04-7524161","city":"彰化縣","region":"彰化市","postal_code":500,"address":"彰鹿路106號","full_address":"500,彰化縣彰化市彰鹿路106號","plan":"中美兄弟製藥永續善行捐款，於協議期間捐贈總計新台幣壹百萬元整，共同為台灣慈善及國際慈善項目等重要永續發展議題，並由企業指定績優同仁授證本會榮董，共同邁向愛心永續發展。"},{"title":"家福股份有限公司","category":"量販電商","website":"https://www.carrefour.com.tw/","phone":"02-28981999","city":"台北市","region":"北投區","postal_code":112,"address":"大業路136號5樓","full_address":"112,台北市北投區大業路136號5樓","plan":"1.防災減災與急難賑災。2.慈善關懷、環境保護與價值倡議。"},{"title":"高雄信宗大飯店","category":"旅館","website":"https://kaohsiung.ahotel.tw/","phone":"07-9738666","city":"高雄市","region":"三民區","postal_code":807,"address":"建國三路487號","full_address":"807,高雄市三民區建國三路487號","plan":"高雄信宗大飯店慈濟優惠專案之販售商品及慈濟優惠專案之住宿專案，提供年度銷售金額之百分之10，合作支持台灣弱勢扶貧。"},{"title":"大哉良食股份有限公司","category":"食品餐飲","website":"https://lin.ee/HUuiWf3","phone":"07-5508530","city":"高雄市","region":"鼓山區","postal_code":804,"address":"博愛一路534號5樓","full_address":"804,高雄市鼓山區博愛一路534號5樓","plan":"大哉良食同意於協議期間提供年度銷售餐盒數量計算，每個餐盒捐贈1元方式捐款，作為慈濟淨零排放計畫合作支持項目使用。"},{"title":"蘋果休閒育樂有限公司","category":"食品餐飲","website":"https://shenmusunrise.com.tw/","phone":"0916-117756","city":"嘉義市","region":"東區","postal_code":30069,"address":"盧厝里盧厝31-8號","full_address":"30069,嘉義市東區盧厝里盧厝31-8號","plan":"蘋果休閒育樂有限公司同意於協議期間提供神沐日初四款公益商品，年度銷售所得之盈餘金額之百分之10方式捐款，合作支持台灣偏鄉發展、青年發展計畫與淨零排放計畫。"},{"title":"三癸亭國際企業","category":"食品餐飲","website":"https://thankyoutea.weebly.com/","phone":"0975-550210","city":"嘉義縣","region":"民雄鄉","postal_code":621,"address":"裕農路220號1樓","full_address":"621,嘉義縣民雄鄉裕農路220號1樓","plan":"三癸亭製茶提供六款公益商品，年度銷售所得之盈餘金額之百分之5方式捐款，合作支持台灣弱勢扶貧、台灣教育助學、台灣安美計畫、台灣偏鄉發展、國際教育計畫及淨零碳排計畫。"},{"title":"立重紙業股份有限公司","category":"製造業","website":"http://www.lechung.com.tw/index.php","phone":"07-3759299","city":"高雄市","region":"仁武區","postal_code":814,"address":"仁林路277號","full_address":"814,高雄市仁武區仁林路277號","plan":"立重紙業永續善行捐款，協議期間捐贈總計新台幣壹佰萬元整，合作支持台灣弱勢扶貧、台灣教育助學、台灣安美計畫、台灣偏鄉發展。"},{"title":"龍盛精密股份有限公司","category":"製造業","website":"http://www.longsp.com.tw/","phone":"07-8135335","city":"高雄市","region":"前鎮區","postal_code":806,"address":"新強路32號","full_address":"806,高雄市前鎮區新強路32號","plan":"龍盛精密永續善行捐款，於協議期間每年捐贈新台幣壹佰伍拾萬元整，共同為國際糧食援助等重要永續發展議題，讓正向良善的愛心能量，能源源不絕成為台灣幸福、世界平安的重要穩定力量。"},{"title":"傑友科技有限公司","category":"光電綠能","website":"https://chieh-u.com/","phone":"07-7337679","city":"高雄市","region":"鳥松區","postal_code":833,"address":"中正路144巷77號","full_address":"833,高雄市鳥松區中正路144巷77號","plan":"傑友科技有限公司同意於協議期間公司就自有太陽能電廠提供年度營收金額之百分之2，作為實現淨零碳排永續發展目標。"},{"title":"合眾冷凍工業股份有限公司","category":"製造業","website":"http://www.coldroom.com.tw/companyc.html","phone":"07-6151121","city":"高雄市","region":"燕巢區","postal_code":824,"address":"鳳旗路310號","full_address":"824,高雄市燕巢區鳳旗路310號","plan":"合眾冷凍永續善行捐款，於協議期間捐贈總計新台幣壹百萬元整，合作支持台灣教育助學、國際教育計畫、淨零排放計畫。"},{"title":"春木建設有限公司","category":"建築不動產","website":"https://www.st86591807.com/","phone":"07-5536688","city":"高雄市","region":"鼓山區","postal_code":804,"address":"明華路253號13樓","full_address":"804,高雄市鼓山區明華路253號13樓","plan":"春木建設永續善行捐款，於協議期間捐贈新台幣參百萬元整，合作支持國際教育計畫等重要永續發展議題，共同建構社會愛心生態系願景。"},{"title":"尚城建設有限公司","category":"建築不動產","website":"http://www.sangcheng.com.tw/","phone":"07-3341776","city":"高雄市","region":"苓雅區","postal_code":802,"address":"四維3路6號24樓之1","full_address":"802,高雄市苓雅區四維3路6號24樓之1","plan":"尚城建設永續善行捐款，於協議期間每年捐贈新台幣參百萬元整，共同為台灣教育助學、國際難民援助、國際糧食援助等重要永續發展議題，發揮ESG的核心價值。"},{"title":"九乘九文具股份有限公司","category":"量販電商","website":"https://9x9stationery.com.tw/","phone":"07-2018899","city":"高雄市","region":"前金區","postal_code":801,"address":"中山二路505號10樓","full_address":"801,高雄市前金區中山二路505號10樓","plan":"九乘九文具支持「慈濟x PaGamO 環保防災勇士養成計畫」（包含捐贈「慈濟 x PaGamO 環保防災勇士養成計畫」競賽獎勵品折合價值)，協議期間總計新台幣叁佰萬元整，作為指定支持環境教育計畫、防災備災計畫使用，以環境教育理念、防災知識二大主題，透過 PaGamO 與慈濟攜手推動環境教育數位化，讓全台及海外學生皆有機會參與。"},{"title":"聖峰通運股份有限公司","category":"倉儲運輸","website":"無官網","phone":"07-8111151","city":"高雄市","region":"前鎮區","postal_code":806,"address":"草衙二路255號7樓","full_address":"806,高雄市前鎮區草衙二路255號7樓","plan":"聖峰通運於協議期間就公司銷售或勞務有關之統一發票金額百分之1.5，合作支持國際災難援助。"},{"title":"世界台灣商會聯合總會","category":"職業團體","website":"https://www.wtcc.org.tw/","phone":"02-23211822","city":"台北市","region":"中正區","postal_code":100,"address":"北平東路30號13樓之3","full_address":"100,台北市中正區北平東路30號13樓之3","plan":"世界台灣商會聯合總會捐助新台幣19,271,294元整予本會，在土耳其地震重災區「加濟安泰普省Gaziantep」的「努爾達伊鎮Nurdagi」，協助災民安身與安心，邁向家園重建之路。"},{"title":"全家便利商店股份有限公司","category":"量販電商","website":"https://www.family.com.tw/Marketing/","phone":"02-25239588","city":"台北市","region":"中山區","postal_code":104,"address":"中山北路2段61號7樓","full_address":"104,台北市中山區中山北路2段61號7樓","plan":"1.急難賑災合作。2.公益慈善合作。3.價值倡議合作。"},{"title":"四海茶莊有限公司","category":"食品餐飲","website":"http://www.szuhaitea.com/zh-tw/","phone":"02-27116363","city":"台北市","region":"大安區","postal_code":106,"address":"敦化南路一段233巷45號1樓","full_address":"106,台北市大安區敦化南路一段233巷45號1樓","plan":"四海茶莊有限公司提供年度銷售金額之百分之1方式捐款，合作支持台灣教育助學。"},{"title":"逸茶棧有限公司","category":"食品餐飲","website":"無官網","phone":"0937-046458","city":"台北市","region":"大安區","postal_code":106,"address":"敦化南路一段233巷45號1樓","full_address":"106,台北市大安區敦化南路一段233巷45號1樓","plan":"逸茶棧有限公司提供年度銷售金額之百分之1方式捐款，合作支持台灣教育助學。"},{"title":"萃釅股份有限公司","category":"食品餐飲","website":"https://www.ainsithe.com/pages/about-us","phone":"02-23973148","city":"台北市","region":"大安區","postal_code":106,"address":"金華街249-1號","full_address":"106,台北市大安區金華街249-1號","plan":"萃釅股份有限公司提供年度銷售金額之百分之1方式捐款，合作支持台灣教育助學。"},{"title":"花蓮縣餅-中華門市","category":"食品餐飲","website":"https://www.hling.com.tw/","phone":"03-8312889","city":"花蓮縣","region":"花蓮市","postal_code":970,"address":"中華路1號","full_address":"970,花蓮縣花蓮市中華路1號","plan":"花蓮縣餅於協議期間提撥其商品圓緣豆沙禮盒之年度銷售所得盈餘金額之10%捐款，支持本會淨零碳排計畫。"},{"title":"花蓮縣餅-站前門市","category":"食品餐飲","website":"https://www.hling.com.tw/","phone":"03-8338819","city":"花蓮縣","region":"花蓮市","postal_code":970,"address":"國聯一路57號","full_address":"970,花蓮縣花蓮市國聯一路57號","plan":"花蓮縣餅於協議期間提撥其商品圓緣豆沙禮盒之年度銷售所得盈餘金額之10%捐款，支持本會淨零碳排計畫。"},{"title":"順發3C台北店","category":"3C電子","website":"https://csr.sunfar.com.tw/","phone":"02-23221818","city":"台北市","region":"中正區","postal_code":100,"address":"八德路一段23號地下一樓","full_address":"100,台北市中正區八德路一段23號地下一樓","plan":"順發電腦【再生電腦專案】，捐贈二手回收之筆電、主機、螢幕三類物品，每年並捐贈新臺幣60萬元整，由慈濟慈善基金會新竹再生電腦團隊經過整修後，無償贈送給弱勢家庭學童以及其他社會福利機構使用，雙方共同提升數位教育並減少電子垃圾，保護環境以促進永續發展。"},{"title":"順發3C板橋四川店","category":"3C電子","website":"https://csr.sunfar.com.tw/","phone":"02-29615522","city":"新北市","region":"板橋區","postal_code":220,"address":"四川路一段105號","full_address":"220,新北市板橋區四川路一段105號","plan":"順發電腦【再生電腦專案】，捐贈二手回收之筆電、主機、螢幕三類物品，每年並捐贈新臺幣60萬元整，由慈濟慈善基金會新竹再生電腦團隊經過整修後，無償贈送給弱勢家庭學童以及其他社會福利機構使用，雙方共同提升數位教育並減少電子垃圾，保護環境以促進永續發展。"},{"title":"順發3C輔大店","category":"3C電子","website":"https://csr.sunfar.com.tw/","phone":"02-29066261","city":"新北市","region":"新莊區","postal_code":242,"address":"建國一路7號","full_address":"242,新北市新莊區建國一路7號","plan":"順發電腦【再生電腦專案】，捐贈二手回收之筆電、主機、螢幕三類物品，每年並捐贈新臺幣60萬元整，由慈濟慈善基金會新竹再生電腦團隊經過整修後，無償贈送給弱勢家庭學童以及其他社會福利機構使用，雙方共同提升數位教育並減少電子垃圾，保護環境以促進永續發展。"},{"title":"順發3C新竹店","category":"3C電子","website":"https://csr.sunfar.com.tw/","phone":"03-5727119","city":"新竹市","region":"東區","postal_code":30069,"address":"金城一路7號","full_address":"30069,新竹市東區金城一路7號","plan":"順發電腦【再生電腦專案】，捐贈二手回收之筆電、主機、螢幕三類物品，每年並捐贈新臺幣60萬元整，由慈濟慈善基金會新竹再生電腦團隊經過整修後，無償贈送給弱勢家庭學童以及其他社會福利機構使用，雙方共同提升數位教育並減少電子垃圾，保護環境以促進永續發展。"},{"title":"順發3C新竹經國店","category":"3C電子","website":"https://csr.sunfar.com.tw/","phone":"03-5335622","city":"新竹市","region":"東區","postal_code":30069,"address":"經國路一段468號","full_address":"30069,新竹市東區經國路一段468號","plan":"順發電腦【再生電腦專案】，捐贈二手回收之筆電、主機、螢幕三類物品，每年並捐贈新臺幣60萬元整，由慈濟慈善基金會新竹再生電腦團隊經過整修後，無償贈送給弱勢家庭學童以及其他社會福利機構使用，雙方共同提升數位教育並減少電子垃圾，保護環境以促進永續發展。"},{"title":"順發3C竹北店","category":"3C電子","website":"https://csr.sunfar.com.tw/","phone":"03-5559292","city":"新竹縣","region":"竹北市","postal_code":302,"address":"中華路262號","full_address":"302,新竹縣竹北市中華路262號","plan":"順發電腦【再生電腦專案】，捐贈二手回收之筆電、主機、螢幕三類物品，每年並捐贈新臺幣60萬元整，由慈濟慈善基金會新竹再生電腦團隊經過整修後，無償贈送給弱勢家庭學童以及其他社會福利機構使用，雙方共同提升數位教育並減少電子垃圾，保護環境以促進永續發展。"},{"title":"順發3C竹東店","category":"3C電子","website":"https://csr.sunfar.com.tw/","phone":"03-5963959","city":"新竹縣","region":"竹東鎮","postal_code":310,"address":"長春路三段315號","full_address":"310,新竹縣竹東鎮長春路三段315號","plan":"順發電腦【再生電腦專案】，捐贈二手回收之筆電、主機、螢幕三類物品，每年並捐贈新臺幣60萬元整，由慈濟慈善基金會新竹再生電腦團隊經過整修後，無償贈送給弱勢家庭學童以及其他社會福利機構使用，雙方共同提升數位教育並減少電子垃圾，保護環境以促進永續發展。"},{"title":"順發3C桃園店","category":"3C電子","website":"https://csr.sunfar.com.tw/","phone":"03-3384456","city":"桃園市","region":"桃園區","postal_code":330,"address":"中山東路32之16號","full_address":"330,桃園市桃園區中山東路32之16號","plan":"順發電腦【再生電腦專案】，捐贈二手回收之筆電、主機、螢幕三類物品，每年並捐贈新臺幣60萬元整，由慈濟慈善基金會新竹再生電腦團隊經過整修後，無償贈送給弱勢家庭學童以及其他社會福利機構使用，雙方共同提升數位教育並減少電子垃圾，保護環境以促進永續發展。"},{"title":"順發3C竹南店","category":"3C電子","website":"https://csr.sunfar.com.tw/","phone":"037-551811","city":"苗栗縣","region":"竹南鎮","postal_code":350,"address":"大營路155號","full_address":"350,苗栗縣竹南鎮大營路155號","plan":"順發電腦【再生電腦專案】，捐贈二手回收之筆電、主機、螢幕三類物品，每年並捐贈新臺幣60萬元整，由慈濟慈善基金會新竹再生電腦團隊經過整修後，無償贈送給弱勢家庭學童以及其他社會福利機構使用，雙方共同提升數位教育並減少電子垃圾，保護環境以促進永續發展。"},{"title":"順發3C頭份店","category":"3C電子","website":"https://csr.sunfar.com.tw/","phone":"037-695858","city":"苗栗縣","region":"頭份鎮","postal_code":351,"address":"忠孝里自強路79號","full_address":"351,苗栗縣頭份鎮忠孝里自強路79號","plan":"順發電腦【再生電腦專案】，捐贈二手回收之筆電、主機、螢幕三類物品，每年並捐贈新臺幣60萬元整，由慈濟慈善基金會新竹再生電腦團隊經過整修後，無償贈送給弱勢家庭學童以及其他社會福利機構使用，雙方共同提升數位教育並減少電子垃圾，保護環境以促進永續發展。"},{"title":"順發3C苗栗店","category":"3C電子","website":"https://csr.sunfar.com.tw/","phone":"037-376998","city":"苗栗縣","region":"苗栗市","postal_code":360,"address":"忠孝路22號","full_address":"360,苗栗縣苗栗市忠孝路22號","plan":"順發電腦【再生電腦專案】，捐贈二手回收之筆電、主機、螢幕三類物品，每年並捐贈新臺幣60萬元整，由慈濟慈善基金會新竹再生電腦團隊經過整修後，無償贈送給弱勢家庭學童以及其他社會福利機構使用，雙方共同提升數位教育並減少電子垃圾，保護環境以促進永續發展。"},{"title":"順發3C文心店","category":"3C電子","website":"https://csr.sunfar.com.tw/","phone":"04-22982828","city":"台中市","region":"北區","postal_code":30042,"address":"文心路四段212號","full_address":"30042,台中市北區文心路四段212號","plan":"順發電腦【再生電腦專案】，捐贈二手回收之筆電、主機、螢幕三類物品，每年並捐贈新臺幣60萬元整，由慈濟慈善基金會新竹再生電腦團隊經過整修後，無償贈送給弱勢家庭學童以及其他社會福利機構使用，雙方共同提升數位教育並減少電子垃圾，保護環境以促進永續發展。"},{"title":"順發3C北屯店","category":"3C電子","website":"https://csr.sunfar.com.tw/","phone":"04-22312699","city":"台中市","region":"北屯區","postal_code":406,"address":"北屯路145號","full_address":"406,台中市北屯區北屯路145號","plan":"順發電腦【再生電腦專案】，捐贈二手回收之筆電、主機、螢幕三類物品，每年並捐贈新臺幣60萬元整，由慈濟慈善基金會新竹再生電腦團隊經過整修後，無償贈送給弱勢家庭學童以及其他社會福利機構使用，雙方共同提升數位教育並減少電子垃圾，保護環境以促進永續發展。"},{"title":"順發3C太平中興店","category":"3C電子","website":"https://csr.sunfar.com.tw/","phone":"04-22731211","city":"台中市","region":"太平區","postal_code":411,"address":"中興東路175號","full_address":"411,台中市太平區中興東路175號","plan":"順發電腦【再生電腦專案】，捐贈二手回收之筆電、主機、螢幕三類物品，每年並捐贈新臺幣60萬元整，由慈濟慈善基金會新竹再生電腦團隊經過整修後，無償贈送給弱勢家庭學童以及其他社會福利機構使用，雙方共同提升數位教育並減少電子垃圾，保護環境以促進永續發展。"},{"title":"順發3C大里店","category":"3C電子","website":"https://csr.sunfar.com.tw/","phone":"04-24969911","city":"台中市","region":"大里區","postal_code":412,"address":"中興路一段343號","full_address":"412,台中市大里區中興路一段343號","plan":"順發電腦【再生電腦專案】，捐贈二手回收之筆電、主機、螢幕三類物品，每年並捐贈新臺幣60萬元整，由慈濟慈善基金會新竹再生電腦團隊經過整修後，無償贈送給弱勢家庭學童以及其他社會福利機構使用，雙方共同提升數位教育並減少電子垃圾，保護環境以促進永續發展。"},{"title":"順發3C豐原店","category":"3C電子","website":"https://csr.sunfar.com.tw/","phone":"04-25122966","city":"台中市","region":"豐原區","postal_code":420,"address":"中正路406號","full_address":"420,台中市豐原區中正路406號","plan":"順發電腦【再生電腦專案】，捐贈二手回收之筆電、主機、螢幕三類物品，每年並捐贈新臺幣60萬元整，由慈濟慈善基金會新竹再生電腦團隊經過整修後，無償贈送給弱勢家庭學童以及其他社會福利機構使用，雙方共同提升數位教育並減少電子垃圾，保護環境以促進永續發展。"},{"title":"順發3C清水店","category":"3C電子","website":"https://csr.sunfar.com.tw/","phone":"04-26221211","city":"台中市","region":"清水區","postal_code":436,"address":"中山路129之1號","full_address":"436,台中市清水區中山路129之1號","plan":"順發電腦【再生電腦專案】，捐贈二手回收之筆電、主機、螢幕三類物品，每年並捐贈新臺幣60萬元整，由慈濟慈善基金會新竹再生電腦團隊經過整修後，無償贈送給弱勢家庭學童以及其他社會福利機構使用，雙方共同提升數位教育並減少電子垃圾，保護環境以促進永續發展。"},{"title":"順發3C大甲店","category":"3C電子","website":"https://csr.sunfar.com.tw/","phone":"04-26801618","city":"台中市","region":"大甲區","postal_code":437,"address":"文武路12號","full_address":"437,台中市大甲區文武路12號","plan":"順發電腦【再生電腦專案】，捐贈二手回收之筆電、主機、螢幕三類物品，每年並捐贈新臺幣60萬元整，由慈濟慈善基金會新竹再生電腦團隊經過整修後，無償贈送給弱勢家庭學童以及其他社會福利機構使用，雙方共同提升數位教育並減少電子垃圾，保護環境以促進永續發展。"},{"title":"順發3C南投店","category":"3C電子","website":"https://csr.sunfar.com.tw/","phone":"049-2228066","city":"南投縣","region":"南投市","postal_code":540,"address":"芳美路185號","full_address":"540,南投縣南投市芳美路185號","plan":"順發電腦【再生電腦專案】，捐贈二手回收之筆電、主機、螢幕三類物品，每年並捐贈新臺幣60萬元整，由慈濟慈善基金會新竹再生電腦團隊經過整修後，無償贈送給弱勢家庭學童以及其他社會福利機構使用，雙方共同提升數位教育並減少電子垃圾，保護環境以促進永續發展。"},{"title":"順發3C草屯店","category":"3C電子","website":"https://csr.sunfar.com.tw/","phone":"049-2553668","city":"南投縣","region":"草屯鎮","postal_code":542,"address":"中正路1002號","full_address":"542,南投縣草屯鎮中正路1002號","plan":"順發電腦【再生電腦專案】，捐贈二手回收之筆電、主機、螢幕三類物品，每年並捐贈新臺幣60萬元整，由慈濟慈善基金會新竹再生電腦團隊經過整修後，無償贈送給弱勢家庭學童以及其他社會福利機構使用，雙方共同提升數位教育並減少電子垃圾，保護環境以促進永續發展。"},{"title":"順發3C埔里店","category":"3C電子","website":"https://csr.sunfar.com.tw/","phone":"049-2912268","city":"南投縣","region":"埔里鎮","postal_code":545,"address":"中山路三段560號","full_address":"545,南投縣埔里鎮中山路三段560號","plan":"順發電腦【再生電腦專案】，捐贈二手回收之筆電、主機、螢幕三類物品，每年並捐贈新臺幣60萬元整，由慈濟慈善基金會新竹再生電腦團隊經過整修後，無償贈送給弱勢家庭學童以及其他社會福利機構使用，雙方共同提升數位教育並減少電子垃圾，保護環境以促進永續發展。"},{"title":"順發3C彰化金馬店","category":"3C電子","website":"https://csr.sunfar.com.tw/","phone":"04-7522226","city":"彰化縣","region":"彰化市","postal_code":500,"address":"金馬路三段701號","full_address":"500,彰化縣彰化市金馬路三段701號","plan":"順發電腦【再生電腦專案】，捐贈二手回收之筆電、主機、螢幕三類物品，每年並捐贈新臺幣60萬元整，由慈濟慈善基金會新竹再生電腦團隊經過整修後，無償贈送給弱勢家庭學童以及其他社會福利機構使用，雙方共同提升數位教育並減少電子垃圾，保護環境以促進永續發展。"},{"title":"順發3C鹿港店","category":"3C電子","website":"https://csr.sunfar.com.tw/","phone":"04-7765399","city":"彰化縣","region":"福興鄉","postal_code":506,"address":"彰鹿路六段684號","full_address":"506,彰化縣福興鄉彰鹿路六段684號","plan":"順發電腦【再生電腦專案】，捐贈二手回收之筆電、主機、螢幕三類物品，每年並捐贈新臺幣60萬元整，由慈濟慈善基金會新竹再生電腦團隊經過整修後，無償贈送給弱勢家庭學童以及其他社會福利機構使用，雙方共同提升數位教育並減少電子垃圾，保護環境以促進永續發展。"},{"title":"順發3C伸港店","category":"3C電子","website":"https://csr.sunfar.com.tw/","phone":"04-7981198","city":"彰化縣","region":"伸港鄉","postal_code":509,"address":"信義二街46號","full_address":"509,彰化縣伸港鄉信義二街46號","plan":"順發電腦【再生電腦專案】，捐贈二手回收之筆電、主機、螢幕三類物品，每年並捐贈新臺幣60萬元整，由慈濟慈善基金會新竹再生電腦團隊經過整修後，無償贈送給弱勢家庭學童以及其他社會福利機構使用，雙方共同提升數位教育並減少電子垃圾，保護環境以促進永續發展。"},{"title":"順發3C員林店","category":"3C電子","website":"https://csr.sunfar.com.tw/","phone":"04-8376699","city":"彰化縣","region":"員林鎮","postal_code":510,"address":"育英路32號","full_address":"510,彰化縣員林鎮育英路32號","plan":"順發電腦【再生電腦專案】，捐贈二手回收之筆電、主機、螢幕三類物品，每年並捐贈新臺幣60萬元整，由慈濟慈善基金會新竹再生電腦團隊經過整修後，無償贈送給弱勢家庭學童以及其他社會福利機構使用，雙方共同提升數位教育並減少電子垃圾，保護環境以促進永續發展。"},{"title":"順發3C溪湖店","category":"3C電子","website":"https://csr.sunfar.com.tw/","phone":"04-8610502","city":"彰化縣","region":"溪湖鎮","postal_code":514,"address":"平和街217號","full_address":"514,彰化縣溪湖鎮平和街217號","plan":"順發電腦【再生電腦專案】，捐贈二手回收之筆電、主機、螢幕三類物品，每年並捐贈新臺幣60萬元整，由慈濟慈善基金會新竹再生電腦團隊經過整修後，無償贈送給弱勢家庭學童以及其他社會福利機構使用，雙方共同提升數位教育並減少電子垃圾，保護環境以促進永續發展。"},{"title":"順發3C田中店","category":"3C電子","website":"https://csr.sunfar.com.tw/","phone":"04-8763519","city":"彰化縣","region":"田中鎮","postal_code":520,"address":"中州路一段54號","full_address":"520,彰化縣田中鎮中州路一段54號","plan":"順發電腦【再生電腦專案】，捐贈二手回收之筆電、主機、螢幕三類物品，每年並捐贈新臺幣60萬元整，由慈濟慈善基金會新竹再生電腦團隊經過整修後，無償贈送給弱勢家庭學童以及其他社會福利機構使用，雙方共同提升數位教育並減少電子垃圾，保護環境以促進永續發展。"},{"title":"順發3C斗南店","category":"3C電子","website":"https://csr.sunfar.com.tw/","phone":"05-5972118","city":"雲林縣","region":"斗南鎮","postal_code":630,"address":"延平路二段355號","full_address":"630,雲林縣斗南鎮延平路二段355號","plan":"順發電腦【再生電腦專案】，捐贈二手回收之筆電、主機、螢幕三類物品，每年並捐贈新臺幣60萬元整，由慈濟慈善基金會新竹再生電腦團隊經過整修後，無償贈送給弱勢家庭學童以及其他社會福利機構使用，雙方共同提升數位教育並減少電子垃圾，保護環境以促進永續發展。"},{"title":"順發3C虎尾店","category":"3C電子","website":"https://csr.sunfar.com.tw/","phone":"05-6321122","city":"雲林縣","region":"虎尾鎮","postal_code":632,"address":"林森路二段179號","full_address":"632,雲林縣虎尾鎮林森路二段179號","plan":"順發電腦【再生電腦專案】，捐贈二手回收之筆電、主機、螢幕三類物品，每年並捐贈新臺幣60萬元整，由慈濟慈善基金會新竹再生電腦團隊經過整修後，無償贈送給弱勢家庭學童以及其他社會福利機構使用，雙方共同提升數位教育並減少電子垃圾，保護環境以促進永續發展。"},{"title":"順發3C斗六店","category":"3C電子","website":"https://csr.sunfar.com.tw/","phone":"05-5378998","city":"雲林縣","region":"斗六市","postal_code":640,"address":"雲林路二段313號","full_address":"640,雲林縣斗六市雲林路二段313號","plan":"順發電腦【再生電腦專案】，捐贈二手回收之筆電、主機、螢幕三類物品，每年並捐贈新臺幣60萬元整，由慈濟慈善基金會新竹再生電腦團隊經過整修後，無償贈送給弱勢家庭學童以及其他社會福利機構使用，雙方共同提升數位教育並減少電子垃圾，保護環境以促進永續發展。"},{"title":"順發3C西螺店","category":"3C電子","website":"https://csr.sunfar.com.tw/","phone":"05-5881266","city":"雲林縣","region":"西螺鎮","postal_code":648,"address":"大同路13號","full_address":"648,雲林縣西螺鎮大同路13號","plan":"順發電腦【再生電腦專案】，捐贈二手回收之筆電、主機、螢幕三類物品，每年並捐贈新臺幣60萬元整，由慈濟慈善基金會新竹再生電腦團隊經過整修後，無償贈送給弱勢家庭學童以及其他社會福利機構使用，雙方共同提升數位教育並減少電子垃圾，保護環境以促進永續發展。"},{"title":"順發3C北港店","category":"3C電子","website":"https://csr.sunfar.com.tw/","phone":"05-7730616","city":"雲林縣","region":"北港鎮","postal_code":651,"address":"文仁路261號","full_address":"651,雲林縣北港鎮文仁路261號","plan":"順發電腦【再生電腦專案】，捐贈二手回收之筆電、主機、螢幕三類物品，每年並捐贈新臺幣60萬元整，由慈濟慈善基金會新竹再生電腦團隊經過整修後，無償贈送給弱勢家庭學童以及其他社會福利機構使用，雙方共同提升數位教育並減少電子垃圾，保護環境以促進永續發展。"},{"title":"順發3C嘉義店","category":"3C電子","website":"https://csr.sunfar.com.tw/","phone":"05-2259252","city":"嘉義市","region":"西區","postal_code":403,"address":"林森西路295號","full_address":"403,嘉義市西區林森西路295號","plan":"順發電腦【再生電腦專案】，捐贈二手回收之筆電、主機、螢幕三類物品，每年並捐贈新臺幣60萬元整，由慈濟慈善基金會新竹再生電腦團隊經過整修後，無償贈送給弱勢家庭學童以及其他社會福利機構使用，雙方共同提升數位教育並減少電子垃圾，保護環境以促進永續發展。"},{"title":"順發3C朴子店","category":"3C電子","website":"https://csr.sunfar.com.tw/","phone":"05-3661611","city":"嘉義縣","region":"朴子市","postal_code":613,"address":"山通路1之83號","full_address":"613,嘉義縣朴子市山通路1之83號","plan":"順發電腦【再生電腦專案】，捐贈二手回收之筆電、主機、螢幕三類物品，每年並捐贈新臺幣60萬元整，由慈濟慈善基金會新竹再生電腦團隊經過整修後，無償贈送給弱勢家庭學童以及其他社會福利機構使用，雙方共同提升數位教育並減少電子垃圾，保護環境以促進永續發展。"},{"title":"順發3C民雄中庄店","category":"3C電子","website":"https://csr.sunfar.com.tw/","phone":"05-2260131","city":"嘉義縣","region":"民雄鄉","postal_code":621,"address":"東榮村4鄰中庄119號","full_address":"621,嘉義縣民雄鄉東榮村4鄰中庄119號","plan":"順發電腦【再生電腦專案】，捐贈二手回收之筆電、主機、螢幕三類物品，每年並捐贈新臺幣60萬元整，由慈濟慈善基金會新竹再生電腦團隊經過整修後，無償贈送給弱勢家庭學童以及其他社會福利機構使用，雙方共同提升數位教育並減少電子垃圾，保護環境以促進永續發展。"},{"title":"順發3C佳里店","category":"3C電子","website":"https://csr.sunfar.com.tw/","phone":"06-7232661","city":"台南市","region":"佳里區","postal_code":722,"address":"中山路142號","full_address":"722,台南市佳里區中山路142號","plan":"順發電腦【再生電腦專案】，捐贈二手回收之筆電、主機、螢幕三類物品，每年並捐贈新臺幣60萬元整，由慈濟慈善基金會新竹再生電腦團隊經過整修後，無償贈送給弱勢家庭學童以及其他社會福利機構使用，雙方共同提升數位教育並減少電子垃圾，保護環境以促進永續發展。"},{"title":"順發3C新營店","category":"3C電子","website":"https://csr.sunfar.com.tw/","phone":"06-6329191","city":"台南市","region":"新營區","postal_code":730,"address":"中正路222號","full_address":"730,台南市新營區中正路222號","plan":"順發電腦【再生電腦專案】，捐贈二手回收之筆電、主機、螢幕三類物品，每年並捐贈新臺幣60萬元整，由慈濟慈善基金會新竹再生電腦團隊經過整修後，無償贈送給弱勢家庭學童以及其他社會福利機構使用，雙方共同提升數位教育並減少電子垃圾，保護環境以促進永續發展。"},{"title":"順發3C台南店","category":"3C電子","website":"https://csr.sunfar.com.tw/","phone":"06-2221996","city":"台南市","region":"中西區","postal_code":700,"address":"青年路118號","full_address":"700,台南市中西區青年路118號","plan":"順發電腦【再生電腦專案】，捐贈二手回收之筆電、主機、螢幕三類物品，每年並捐贈新臺幣60萬元整，由慈濟慈善基金會新竹再生電腦團隊經過整修後，無償贈送給弱勢家庭學童以及其他社會福利機構使用，雙方共同提升數位教育並減少電子垃圾，保護環境以促進永續發展。"},{"title":"順發3C永康店","category":"3C電子","website":"https://csr.sunfar.com.tw/","phone":"06-3038899","city":"台南市","region":"永康區","postal_code":710,"address":"中山南路162號","full_address":"710,台南市永康區中山南路162號","plan":"順發電腦【再生電腦專案】，捐贈二手回收之筆電、主機、螢幕三類物品，每年並捐贈新臺幣60萬元整，由慈濟慈善基金會新竹再生電腦團隊經過整修後，無償贈送給弱勢家庭學童以及其他社會福利機構使用，雙方共同提升數位教育並減少電子垃圾，保護環境以促進永續發展。"},{"title":"順發3C大灣店","category":"3C電子","website":"https://csr.sunfar.com.tw/","phone":"06-2071089","city":"台南市","region":"永康區","postal_code":710,"address":"大灣路733號","full_address":"710,台南市永康區大灣路733號","plan":"順發電腦【再生電腦專案】，捐贈二手回收之筆電、主機、螢幕三類物品，每年並捐贈新臺幣60萬元整，由慈濟慈善基金會新竹再生電腦團隊經過整修後，無償贈送給弱勢家庭學童以及其他社會福利機構使用，雙方共同提升數位教育並減少電子垃圾，保護環境以促進永續發展。"},{"title":"順發3C歸仁店","category":"3C電子","website":"https://csr.sunfar.com.tw/","phone":"06-2308811","city":"台南市","region":"歸仁區","postal_code":711,"address":"南保里中山路三段192號","full_address":"711,台南市歸仁區南保里中山路三段192號","plan":"順發電腦【再生電腦專案】，捐贈二手回收之筆電、主機、螢幕三類物品，每年並捐贈新臺幣60萬元整，由慈濟慈善基金會新竹再生電腦團隊經過整修後，無償贈送給弱勢家庭學童以及其他社會福利機構使用，雙方共同提升數位教育並減少電子垃圾，保護環境以促進永續發展。"},{"title":"順發3C善化店","category":"3C電子","website":"https://csr.sunfar.com.tw/","phone":"06-5850606","city":"台南市","region":"善化區","postal_code":741,"address":"中山路226之6號","full_address":"741,台南市善化區中山路226之6號","plan":"順發電腦【再生電腦專案】，捐贈二手回收之筆電、主機、螢幕三類物品，每年並捐贈新臺幣60萬元整，由慈濟慈善基金會新竹再生電腦團隊經過整修後，無償贈送給弱勢家庭學童以及其他社會福利機構使用，雙方共同提升數位教育並減少電子垃圾，保護環境以促進永續發展。"},{"title":"順發3C高雄店","category":"3C電子","website":"https://csr.sunfar.com.tw/","phone":"07-2382211","city":"高雄市","region":"三民區","postal_code":807,"address":"建國二路2號","full_address":"807,高雄市三民區建國二路2號","plan":"順發電腦【再生電腦專案】，捐贈二手回收之筆電、主機、螢幕三類物品，每年並捐贈新臺幣60萬元整，由慈濟慈善基金會新竹再生電腦團隊經過整修後，無償贈送給弱勢家庭學童以及其他社會福利機構使用，雙方共同提升數位教育並減少電子垃圾，保護環境以促進永續發展。"},{"title":"順發3C華榮店","category":"3C電子","website":"https://csr.sunfar.com.tw/","phone":"07-5521166","city":"高雄市","region":"鼓山區","postal_code":804,"address":"華榮路456號二樓","full_address":"804,高雄市鼓山區華榮路456號二樓","plan":"順發電腦【再生電腦專案】，捐贈二手回收之筆電、主機、螢幕三類物品，每年並捐贈新臺幣60萬元整，由慈濟慈善基金會新竹再生電腦團隊經過整修後，無償贈送給弱勢家庭學童以及其他社會福利機構使用，雙方共同提升數位教育並減少電子垃圾，保護環境以促進永續發展。"},{"title":"順發3C楠梓店","category":"3C電子","website":"https://csr.sunfar.com.tw/","phone":"07-3512699","city":"高雄市","region":"楠梓區","postal_code":811,"address":"朝新路170號","full_address":"811,高雄市楠梓區朝新路170號","plan":"順發電腦【再生電腦專案】，捐贈二手回收之筆電、主機、螢幕三類物品，每年並捐贈新臺幣60萬元整，由慈濟慈善基金會新竹再生電腦團隊經過整修後，無償贈送給弱勢家庭學童以及其他社會福利機構使用，雙方共同提升數位教育並減少電子垃圾，保護環境以促進永續發展。"},{"title":"順發3C右昌店","category":"3C電子","website":"https://csr.sunfar.com.tw/","phone":"07-3609668","city":"高雄市","region":"楠梓區","postal_code":811,"address":"德民路962號","full_address":"811,高雄市楠梓區德民路962號","plan":"順發電腦【再生電腦專案】，捐贈二手回收之筆電、主機、螢幕三類物品，每年並捐贈新臺幣60萬元整，由慈濟慈善基金會新竹再生電腦團隊經過整修後，無償贈送給弱勢家庭學童以及其他社會福利機構使用，雙方共同提升數位教育並減少電子垃圾，保護環境以促進永續發展。"},{"title":"順發3C岡山店","category":"3C電子","website":"https://csr.sunfar.com.tw/","phone":"07-6258988","city":"高雄市","region":"岡山區","postal_code":820,"address":"柳橋西路64之6號","full_address":"820,高雄市岡山區柳橋西路64之6號","plan":"順發電腦【再生電腦專案】，捐贈二手回收之筆電、主機、螢幕三類物品，每年並捐贈新臺幣60萬元整，由慈濟慈善基金會新竹再生電腦團隊經過整修後，無償贈送給弱勢家庭學童以及其他社會福利機構使用，雙方共同提升數位教育並減少電子垃圾，保護環境以促進永續發展。"},{"title":"順發3C屏東店","category":"3C電子","website":"https://csr.sunfar.com.tw/","phone":"08-7651221","city":"屏東縣","region":"屏東市","postal_code":900,"address":"民生路343號","full_address":"900,屏東縣屏東市民生路343號","plan":"順發電腦【再生電腦專案】，捐贈二手回收之筆電、主機、螢幕三類物品，每年並捐贈新臺幣60萬元整，由慈濟慈善基金會新竹再生電腦團隊經過整修後，無償贈送給弱勢家庭學童以及其他社會福利機構使用，雙方共同提升數位教育並減少電子垃圾，保護環境以促進永續發展。"},{"title":"順發3C內埔店","category":"3C電子","website":"https://csr.sunfar.com.tw/","phone":"08-7792988","city":"屏東縣","region":"內埔鄉","postal_code":912,"address":"學人路392之1號","full_address":"912,屏東縣內埔鄉學人路392之1號","plan":"順發電腦【再生電腦專案】，捐贈二手回收之筆電、主機、螢幕三類物品，每年並捐贈新臺幣60萬元整，由慈濟慈善基金會新竹再生電腦團隊經過整修後，無償贈送給弱勢家庭學童以及其他社會福利機構使用，雙方共同提升數位教育並減少電子垃圾，保護環境以促進永續發展。"},{"title":"順發3C潮州店","category":"3C電子","website":"https://csr.sunfar.com.tw/","phone":"08-7809292","city":"屏東縣","region":"潮州鎮","postal_code":920,"address":"延平路255號","full_address":"920,屏東縣潮州鎮延平路255號","plan":"順發電腦【再生電腦專案】，捐贈二手回收之筆電、主機、螢幕三類物品，每年並捐贈新臺幣60萬元整，由慈濟慈善基金會新竹再生電腦團隊經過整修後，無償贈送給弱勢家庭學童以及其他社會福利機構使用，雙方共同提升數位教育並減少電子垃圾，保護環境以促進永續發展。"},{"title":"順發3C小港店","category":"3C電子","website":"https://csr.sunfar.com.tw/","phone":"07-8016996","city":"高雄市","region":"小港區","postal_code":812,"address":"漢民路790號","full_address":"812,高雄市小港區漢民路790號","plan":"順發電腦【再生電腦專案】，捐贈二手回收之筆電、主機、螢幕三類物品，每年並捐贈新臺幣60萬元整，由慈濟慈善基金會新竹再生電腦團隊經過整修後，無償贈送給弱勢家庭學童以及其他社會福利機構使用，雙方共同提升數位教育並減少電子垃圾，保護環境以促進永續發展。"},{"title":"順發3C鳳山店","category":"3C電子","website":"https://csr.sunfar.com.tw/","phone":"07-7429688","city":"高雄市","region":"鳳山區","postal_code":830,"address":"中山西路139號","full_address":"830,高雄市鳳山區中山西路139號","plan":"順發電腦【再生電腦專案】，捐贈二手回收之筆電、主機、螢幕三類物品，每年並捐贈新臺幣60萬元整，由慈濟慈善基金會新竹再生電腦團隊經過整修後，無償贈送給弱勢家庭學童以及其他社會福利機構使用，雙方共同提升數位教育並減少電子垃圾，保護環境以促進永續發展。"},{"title":"順發3C五甲店","category":"3C電子","website":"https://csr.sunfar.com.tw/","phone":"07-7682211","city":"高雄市","region":"鳳山區","postal_code":830,"address":"五甲三路166號","full_address":"830,高雄市鳳山區五甲三路166號","plan":"順發電腦【再生電腦專案】，捐贈二手回收之筆電、主機、螢幕三類物品，每年並捐贈新臺幣60萬元整，由慈濟慈善基金會新竹再生電腦團隊經過整修後，無償贈送給弱勢家庭學童以及其他社會福利機構使用，雙方共同提升數位教育並減少電子垃圾，保護環境以促進永續發展。"},{"title":"順發3C林園店","category":"3C電子","website":"https://csr.sunfar.com.tw/","phone":"07-6417288","city":"高雄市","region":"林園區","postal_code":832,"address":"仁愛路127號","full_address":"832,高雄市林園區仁愛路127號","plan":"順發電腦【再生電腦專案】，捐贈二手回收之筆電、主機、螢幕三類物品，每年並捐贈新臺幣60萬元整，由慈濟慈善基金會新竹再生電腦團隊經過整修後，無償贈送給弱勢家庭學童以及其他社會福利機構使用，雙方共同提升數位教育並減少電子垃圾，保護環境以促進永續發展。"},{"title":"順發3C東港店","category":"3C電子","website":"https://csr.sunfar.com.tw/","phone":"08-8333396","city":"屏東縣","region":"東港鎮","postal_code":928,"address":"中正路一段39號","full_address":"928,屏東縣東港鎮中正路一段39號","plan":"順發電腦【再生電腦專案】，捐贈二手回收之筆電、主機、螢幕三類物品，每年並捐贈新臺幣60萬元整，由慈濟慈善基金會新竹再生電腦團隊經過整修後，無償贈送給弱勢家庭學童以及其他社會福利機構使用，雙方共同提升數位教育並減少電子垃圾，保護環境以促進永續發展。"},{"title":"順發3C枋寮店","category":"3C電子","website":"https://csr.sunfar.com.tw/","phone":"08-8782686","city":"屏東縣","region":"枋寮鄉","postal_code":940,"address":"中興路6號","full_address":"940,屏東縣枋寮鄉中興路6號","plan":"順發電腦【再生電腦專案】，捐贈二手回收之筆電、主機、螢幕三類物品，每年並捐贈新臺幣60萬元整，由慈濟慈善基金會新竹再生電腦團隊經過整修後，無償贈送給弱勢家庭學童以及其他社會福利機構使用，雙方共同提升數位教育並減少電子垃圾，保護環境以促進永續發展。"},{"title":"順發3C台東店","category":"3C電子","website":"https://csr.sunfar.com.tw/","phone":"089-360866","city":"台東縣","region":"臺東市","postal_code":950,"address":"更生路469號","full_address":"950,台東縣臺東市更生路469號","plan":"順發電腦【再生電腦專案】，捐贈二手回收之筆電、主機、螢幕三類物品，每年並捐贈新臺幣60萬元整，由慈濟慈善基金會新竹再生電腦團隊經過整修後，無償贈送給弱勢家庭學童以及其他社會福利機構使用，雙方共同提升數位教育並減少電子垃圾，保護環境以促進永續發展。"},{"title":"順發3C基隆信二店","category":"3C電子","website":"https://csr.sunfar.com.tw/","phone":"02-24216288","city":"基隆市","region":"中正區","postal_code":100,"address":"信二路296之1號","full_address":"100,基隆市中正區信二路296之1號","plan":"順發電腦【再生電腦專案】，捐贈二手回收之筆電、主機、螢幕三類物品，每年並捐贈新臺幣60萬元整，由慈濟慈善基金會新竹再生電腦團隊經過整修後，無償贈送給弱勢家庭學童以及其他社會福利機構使用，雙方共同提升數位教育並減少電子垃圾，保護環境以促進永續發展。"},{"title":"順發3C宜蘭店","category":"3C電子","website":"https://csr.sunfar.com.tw/","phone":"03-9356628","city":"宜蘭縣","region":"宜蘭市","postal_code":260,"address":"光復路56號","full_address":"260,宜蘭縣宜蘭市光復路56號","plan":"順發電腦【再生電腦專案】，捐贈二手回收之筆電、主機、螢幕三類物品，每年並捐贈新臺幣60萬元整，由慈濟慈善基金會新竹再生電腦團隊經過整修後，無償贈送給弱勢家庭學童以及其他社會福利機構使用，雙方共同提升數位教育並減少電子垃圾，保護環境以促進永續發展。"},{"title":"順發3C羅東店","category":"3C電子","website":"https://csr.sunfar.com.tw/","phone":"03-9531166","city":"宜蘭縣","region":"羅東鎮","postal_code":265,"address":"公正路132號","full_address":"265,宜蘭縣羅東鎮公正路132號","plan":"順發電腦【再生電腦專案】，捐贈二手回收之筆電、主機、螢幕三類物品，每年並捐贈新臺幣60萬元整，由慈濟慈善基金會新竹再生電腦團隊經過整修後，無償贈送給弱勢家庭學童以及其他社會福利機構使用，雙方共同提升數位教育並減少電子垃圾，保護環境以促進永續發展。"},{"title":"順發3C花蓮店","category":"3C電子","website":"https://csr.sunfar.com.tw/","phone":"03-8333351","city":"花蓮縣","region":"花蓮市","postal_code":970,"address":"中山路319號","full_address":"970,花蓮縣花蓮市中山路319號","plan":"順發電腦【再生電腦專案】，捐贈二手回收之筆電、主機、螢幕三類物品，每年並捐贈新臺幣60萬元整，由慈濟慈善基金會新竹再生電腦團隊經過整修後，無償贈送給弱勢家庭學童以及其他社會福利機構使用，雙方共同提升數位教育並減少電子垃圾，保護環境以促進永續發展。"},{"title":"順發3C玉里店","category":"3C電子","website":"https://csr.sunfar.com.tw/","phone":"03-8881856","city":"花蓮縣","region":"玉里鎮","postal_code":981,"address":"中山路二段56號","full_address":"981,花蓮縣玉里鎮中山路二段56號","plan":"順發電腦【再生電腦專案】，捐贈二手回收之筆電、主機、螢幕三類物品，每年並捐贈新臺幣60萬元整，由慈濟慈善基金會新竹再生電腦團隊經過整修後，無償贈送給弱勢家庭學童以及其他社會福利機構使用，雙方共同提升數位教育並減少電子垃圾，保護環境以促進永續發展。"}]